[{"OBJECT_NAME":"STARLINK-34473","OBJECT_ID":"2025-126L","EPOCH":"2026-03-09T07:08:55.697568","MEAN_MOTION":14.98332341,"ECCENTRICITY":0.00028351,"INCLINATION":70.0032,"RA_OF_ASC_NODE":35.4295,"ARG_OF_PERICENTER":269.1154,"MEAN_ANOMALY":90.968,"EPHEMERIS_TYPE":0,"CLASSIFICATION_TYPE":"U","NORAD_CAT_ID":64354,"ELEMENT_SET_NO":999,"REV_AT_EPOCH":4062,"BSTAR":0.00016105214,"MEAN_MOTION_DOT":1.829e-5,"MEAN_MOTION_DDOT":0},{"OBJECT_NAME":"ORBCOMM FM02","OBJECT_ID":"1995-017B","EPOCH":"2026-03-09T15:14:02.878656","MEAN_MOTION":14.96738099,"ECCENTRICITY":0.0008676,"INCLINATION":69.9626,"RA_OF_ASC_NODE":148.0696,"ARG_OF_PERICENTER":276.2558,"MEAN_ANOMALY":83.7611,"EPHEMERIS_TYPE":0,"CLASSIFICATION_TYPE":"U","NORAD_CAT_ID":23546,"ELEMENT_SET_NO":999,"REV_AT_EPOCH":65179,"BSTAR":0.00080978,"MEAN_MOTION_DOT":9.2e-5,"MEAN_MOTION_DDOT":0}]
